{
  "version": 1,
  "fetchedAt": "2026-06-21T12:32:46.387Z",
  "source": "celestrak-gp",
  "counts": {
    "station": 24,
    "satellite": 520,
    "debris": 250
  },
  "objects": [
    {
      "id": "25994",
      "name": "TERRA",
      "noradId": 25994,
      "line1": "1 25994U 99068A   26171.44083515  .00000275  00000+0  65041-4 0  9991",
      "line2": "2 25994  97.9454 220.8581 0001842 178.7606 238.1366 14.61105267410080",
      "category": "satellite"
    },
    {
      "id": "27424",
      "name": "AQUA",
      "noradId": 27424,
      "line1": "1 27424U 02022A   26171.42470413  .00000562  00000+0  12157-3 0  9998",
      "line2": "2 27424  98.4278 140.7722 0000982  55.9702  96.4678 14.62162126283744",
      "category": "satellite"
    },
    {
      "id": "29228",
      "name": "RESURS-DK 1",
      "noradId": 29228,
      "line1": "1 29228U 06021A   26171.40661411  .00001448  00000+0  87373-4 0  9990",
      "line2": "2 29228  69.9331 331.2197 0006868 290.2744  69.7684 15.13228164103061",
      "category": "satellite"
    },
    {
      "id": "31598",
      "name": "COSMO-SKYMED 1",
      "noradId": 31598,
      "line1": "1 31598U 07023A   26172.14522127  .00002324  00000+0  20660-3 0  9997",
      "line2": "2 31598  97.8853   4.0340 0001591  96.8472 263.2930 14.97116981 30387",
      "category": "satellite"
    },
    {
      "id": "22490",
      "name": "SCD 1",
      "noradId": 22490,
      "line1": "1 22490U 93009B   26171.33203697  .00000313  00000+0  34510-4 0  9991",
      "line2": "2 22490  24.9675 188.1587 0041952 170.9157 213.0702 14.46119674761575",
      "category": "satellite"
    },
    {
      "id": "25397",
      "name": "TECHSAT 1B (GO-32)",
      "noradId": 25397,
      "line1": "1 25397U 98043D   26171.43605319  .00000032  00000+0  33890-4 0  9999",
      "line2": "2 25397  99.0068 164.2767 0001219 156.5266 203.5967 14.24428915451795",
      "category": "satellite"
    },
    {
      "id": "25504",
      "name": "SCD 2",
      "noradId": 25504,
      "line1": "1 25504U 98060A   26171.07540117  .00000341  00000+0  44252-4 0  9999",
      "line2": "2 25504  24.9960  54.3455 0016856 153.1205 320.9038 14.45526782460747",
      "category": "satellite"
    },
    {
      "id": "25757",
      "name": "DLR-TUBSAT",
      "noradId": 25757,
      "line1": "1 25757U 99029B   26170.98014943  .00000046  00000+0  23075-4 0  9999",
      "line2": "2 25757  98.6694 166.5761 0013868 346.6123  13.4702 14.52427375433651",
      "category": "satellite"
    },
    {
      "id": "27004",
      "name": "MAROC-TUBSAT",
      "noradId": 27004,
      "line1": "1 27004U 01056D   26171.37260714 -.00000034  00000+0  13845-4 0  9994",
      "line2": "2 27004  99.8084 348.2921 0020418 133.3391 346.0489 13.70262541226623",
      "category": "satellite"
    },
    {
      "id": "28220",
      "name": "SHIYAN-1 (SY-1)",
      "noradId": 28220,
      "line1": "1 28220U 04012A   26171.18463165  .00011063  00000+0  34057-3 0  9994",
      "line2": "2 28220  97.8685 249.4480 0005306  22.5113 337.6360 15.33824479211556",
      "category": "satellite"
    },
    {
      "id": "28376",
      "name": "AURA",
      "noradId": 28376,
      "line1": "1 28376U 04026A   26171.40966628  .00000566  00000+0  12442-3 0  9998",
      "line2": "2 28376  98.3418 127.8897 0001187  77.8282 282.3052 14.61333094166687",
      "category": "satellite"
    },
    {
      "id": "28649",
      "name": "IRS-P5 (CARTOSAT-1)",
      "noradId": 28649,
      "line1": "1 28649U 05017A   26171.03106645  .00000963  00000+0  10255-3 0  9997",
      "line2": "2 28649  97.5305 193.9666 0002525  76.4954 283.6546 14.91055438144248",
      "category": "satellite"
    },
    {
      "id": "28893",
      "name": "SINAH 1",
      "noradId": 28893,
      "line1": "1 28893U 05043D   26171.40278067  .00000224  00000+0  51932-4 0  9994",
      "line2": "2 28893  98.2865 305.7437 0013138 265.6982  94.2719 14.64159377100991",
      "category": "satellite"
    },
    {
      "id": "29268",
      "name": "ARIRANG-2 (KOMPSAT-2)",
      "noradId": 29268,
      "line1": "1 29268U 06031A   26172.19230924  .00000217  00000+0  49147-4 0  9993",
      "line2": "2 29268  97.8311 356.4445 0015834  63.0830  26.6564 14.64661985 62063",
      "category": "satellite"
    },
    {
      "id": "29709",
      "name": "LAPAN-TUBSAT",
      "noradId": 29709,
      "line1": "1 29709U 07001A   26172.22729225  .00000711  00000+0  88013-4 0  9996",
      "line2": "2 29709  98.1345 171.5427 0012277 166.0462 194.1094 14.85954535 51755",
      "category": "satellite"
    },
    {
      "id": "31113",
      "name": "HAIYANG-1B",
      "noradId": 31113,
      "line1": "1 31113U 07010A   26171.43105603  .00000067  00000+0  41288-4 0  9995",
      "line2": "2 31113  98.3495 153.1505 0013231 186.4668 173.6347 14.31027586  1108",
      "category": "satellite"
    },
    {
      "id": "31698",
      "name": "TERRASAR-X",
      "noradId": 31698,
      "line1": "1 31698U 07026A   26170.49711592  .00000145  00000+0  10104-4 0  9995",
      "line2": "2 31698  97.4452 178.1696 0001572  90.3933 269.7482 15.19151206 53579",
      "category": "satellite"
    },
    {
      "id": "32060",
      "name": "WORLDVIEW-1 (WV-1)",
      "noradId": 32060,
      "line1": "1 32060U 07041A   26171.44311463  .00004743  00000+0  19700-3 0  9993",
      "line2": "2 32060  97.3881 291.1401 0001947  10.6143 349.5135 15.24296645 43374",
      "category": "satellite"
    },
    {
      "id": "32289",
      "name": "YAOGAN-3",
      "noradId": 32289,
      "line1": "1 32289U 07055A   26172.15455571  .00001323  00000+0  14021-3 0  9991",
      "line2": "2 32289  97.8146 201.9931 0001724  83.1227 277.0188 14.90791156  6465",
      "category": "satellite"
    },
    {
      "id": "32376",
      "name": "COSMO-SKYMED 2",
      "noradId": 32376,
      "line1": "1 32376U 07059A   26172.14416429  .00000285  00000+0  42310-4 0  9999",
      "line2": "2 32376  97.8888 355.6846 0001348  88.4030 271.7337 14.82157691  2597",
      "category": "satellite"
    },
    {
      "id": "32382",
      "name": "RADARSAT-2",
      "noradId": 32382,
      "line1": "1 32382U 07061A   26172.16609486 -.00000086  00000+0 -16305-4 0  9994",
      "line2": "2 32382  98.5779 179.0421 0001309  85.8361 274.2971 14.29982011966520",
      "category": "satellite"
    },
    {
      "id": "32783",
      "name": "CARTOSAT-2A",
      "noradId": 32783,
      "line1": "1 32783U 08021A   26172.17277980  .00000890  00000+0  12638-3 0  9992",
      "line2": "2 32783  97.7626 220.7456 0013285  97.4293 262.8429 14.79245071979391",
      "category": "satellite"
    },
    {
      "id": "33320",
      "name": "HUANJING 1A (HJ-1A)",
      "noradId": 33320,
      "line1": "1 33320U 08041A   26172.21197072  .00000904  00000+0  11442-3 0  9998",
      "line2": "2 33320  97.6689 157.8955 0020277 122.2107 238.1077 14.83994434959001",
      "category": "satellite"
    },
    {
      "id": "33321",
      "name": "HUANJING 1B (HJ-1B)",
      "noradId": 33321,
      "line1": "1 33321U 08041B   26172.25033331  .00000701  00000+0  90964-4 0  9992",
      "line2": "2 33321  97.6523 161.0914 0036419 167.6489 192.5627 14.83321457959016",
      "category": "satellite"
    },
    {
      "id": "33331",
      "name": "GEOEYE 1",
      "noradId": 33331,
      "line1": "1 33331U 08042A   26171.43092722  .00000322  00000+0  69364-4 0  9991",
      "line2": "2 33331  98.1235 245.3211 0005299  61.7686 298.4052 14.64728217950624",
      "category": "satellite"
    },
    {
      "id": "33396",
      "name": "THEOS",
      "noradId": 33396,
      "line1": "1 33396U 08049A   26172.19620795  .00000046  00000+0  41661-4 0  9993",
      "line2": "2 33396  98.5564 229.3501 0001182  82.0873 278.0439 14.20134098918536",
      "category": "satellite"
    },
    {
      "id": "33412",
      "name": "COSMO-SKYMED 3",
      "noradId": 33412,
      "line1": "1 33412U 08054A   26172.19356760  .00003054  00000+0  20816-3 0  9996",
      "line2": "2 33412  97.8282  30.8304 0013899 251.1652 108.8068 15.06973575957540",
      "category": "satellite"
    },
    {
      "id": "33446",
      "name": "YAOGAN-4",
      "noradId": 33446,
      "line1": "1 33446U 08061A   26171.40531236  .00000754  00000+0  98778-4 0  9994",
      "line2": "2 33446  97.9306 104.8918 0015630  62.9607 297.3200 14.83205273946144",
      "category": "satellite"
    },
    {
      "id": "33492",
      "name": "GOSAT (IBUKI)",
      "noradId": 33492,
      "line1": "1 33492U 09002A   26171.20655268  .00000825  00000+0  15400-3 0  9990",
      "line2": "2 33492  98.0896 282.2496 0001472  79.8858 280.2513 14.67540318931907",
      "category": "satellite"
    },
    {
      "id": "35681",
      "name": "DEIMOS-1",
      "noradId": 35681,
      "line1": "1 35681U 09041A   26172.18816142  .00000010  00000+0  85089-5 0  9991",
      "line2": "2 35681  97.7414 329.2421 0001946 127.3971 232.7416 14.75238942907477",
      "category": "satellite"
    }
  ]
}